ONEWEB-0228             
1 48780U 21045P   23312.44434984  .00000201  00000+0  49972-3 0  9996
2 48780  87.8968  88.6587 0001418  93.0291 267.1002 13.15548979119196
